{"type": "FeatureCollection", "features": [ {"type": "Feature", "properties": {"norad_id": 29930, "name": "FENGYUN 1C DEB", "group": "fengyun-1c-debris", "lat": 79.99153065681855, "lon": 172.87192647074735, "alt_km": 746.7541890502143, "timestamp": "2025-12-20T22:39:10.899193+00:00", "meta": {"OBJECT_NAME": "FENGYUN 1C DEB", "OBJECT_ID": "1999-025JC", "EPOCH": "2025-12-20T04:14:20.444928", "MEAN_MOTION": 14.20825122, "ECCENTRICITY": 0.01643841, "INCLINATION": 99.0442, "RA_OF_ASC_NODE": 236.5785, "ARG_OF_PERICENTER": 32.4161, "MEAN_ANOMALY": 89.4852, "EPHEMERIS_TYPE": 0, "CLASSIFICATION_TYPE": "U", "NORAD_CAT_ID": 29930, "ELEMENT_SET_NO": 999, "REV_AT_EPOCH": 97996, "BSTAR": 0.0001831904, "MEAN_MOTION_DOT": 4.06e-06, "MEAN_MOTION_DDOT": 0}, "tle": {"line1": "1 29930U 99025JC  25354.17662552  .00000406  00000+0  18319-3 0  9995", "line2": "2 29930  99.0442 236.5785 0164384  32.4161  89.4852 14.20825122979965"}}, "geometry": {"type": "Point", "coordinates": [172.87192647074735, 79.99153065681855]}}, {"type": "Feature", "properties": {"norad_id": 29931, "name": "FENGYUN 1C DEB", "group": "fengyun-1c-debris", "lat": -52.947920626447605, "lon": 41.96649125772511, "alt_km": 900.7705359854672, "timestamp": "2025-12-20T22:39:10.899202+00:00", "meta": {"OBJECT_NAME": "FENGYUN 1C DEB", "OBJECT_ID": "1999-025JD", "EPOCH": "2025-12-20T00:58:09.304608", "MEAN_MOTION": 14.03900527, "ECCENTRICITY": 0.00324154, "INCLINATION": 98.8591, "RA_OF_ASC_NODE": 29.1641, "ARG_OF_PERICENTER": 73.9466, "MEAN_ANOMALY": 348.798, "EPHEMERIS_TYPE": 0, "CLASSIFICATION_TYPE": "U", "NORAD_CAT_ID": 29931, "ELEMENT_SET_NO": 999, "REV_AT_EPOCH": 96915, "BSTAR": 0.00032190252, "MEAN_MOTION_DOT": 4.67e-06, "MEAN_MOTION_DDOT": 0}, "tle": {"line1": "1 29931U 99025JD  25354.04038547  .00000467  00000+0  32190-3 0  9993", "line2": "2 29931  98.8591  29.1641 0032415  73.9466 348.7980 14.03900527969159"}}, "geometry": {"type": "Point", "coordinates": [41.96649125772511, -52.947920626447605]}}, {"type": "Feature", "properties": {"norad_id": 29932, "name": "FENGYUN 1C DEB", "group": "fengyun-1c-debris", "lat": 57.409869892523474, "lon": -8.361849186379333, "alt_km": 803.5873005932808, "timestamp": "2025-12-20T22:39:10.899211+00:00", "meta": {"OBJECT_NAME": "FENGYUN 1C DEB", "OBJECT_ID": "1999-025JE", "EPOCH": "2025-12-20T07:12:46.734624", "MEAN_MOTION": 14.16771287, "ECCENTRICITY": 0.00383474, "INCLINATION": 98.6337, "RA_OF_ASC_NODE": 4.7625, "ARG_OF_PERICENTER": 49.1764, "MEAN_ANOMALY": 329.843, "EPHEMERIS_TYPE": 0, "CLASSIFICATION_TYPE": "U", "NORAD_CAT_ID": 29932, "ELEMENT_SET_NO": 999, "REV_AT_EPOCH": 97691, "BSTAR": 0.00022919671, "MEAN_MOTION_DOT": 4.19e-06, "MEAN_MOTION_DDOT": 0}, "tle": {"line1": "1 29932U 99025JE  25354.30054091  .00000419  00000+0  22920-3 0  9992", "line2": "2 29932  98.6337   4.7625 0038347  49.1764 329.8430 14.16771287976918"}}, "geometry": {"type": "Point", "coordinates": [-8.361849186379333, 57.409869892523474]}}, {"type": "Feature", "properties": {"norad_id": 29933, "name": "FENGYUN 1C DEB", "group": "fengyun-1c-debris", "lat": 29.287222240796332, "lon": -76.36738975131472, "alt_km": 675.0878130964657, "timestamp": "2025-12-20T22:39:10.899232+00:00", "meta": {"OBJECT_NAME": "FENGYUN 1C DEB", "OBJECT_ID": "1999-025JF", "EPOCH": "2025-12-20T05:50:46.139712", "MEAN_MOTION": 14.66113161, "ECCENTRICITY": 0.0005112, "INCLINATION": 98.7494, "RA_OF_ASC_NODE": 97.9315, "ARG_OF_PERICENTER": 300.6346, "MEAN_ANOMALY": 115.6629, "EPHEMERIS_TYPE": 0, "CLASSIFICATION_TYPE": "U", "NORAD_CAT_ID": 29933, "ELEMENT_SET_NO": 999, "REV_AT_EPOCH": 98615, "BSTAR": 0.002128, "MEAN_MOTION_DOT": 0.00011655, "MEAN_MOTION_DDOT": 0}, "tle": {"line1": "1 29933U 99025JF  25354.24358958  .00011655  00000+0  21280-2 0  9996", "line2": "2 29933  98.7494  97.9315 0005112 300.6346 115.6629 14.66113161986153"}}, "geometry": {"type": "Point", "coordinates": [-76.36738975131472, 29.287222240796332]}}, {"type": "Feature", "properties": {"norad_id": 29934, "name": "FENGYUN 1C DEB", "group": "fengyun-1c-debris", "lat": 15.919652376060169, "lon": 39.90499978326462, "alt_km": 742.5416904368194, "timestamp": "2025-12-20T22:39:10.899242+00:00", "meta": {"OBJECT_NAME": "FENGYUN 1C DEB", "OBJECT_ID": "1999-025JG", "EPOCH": "2025-12-20T14:22:33.836736", "MEAN_MOTION": 14.63853085, "ECCENTRICITY": 0.01009292, "INCLINATION": 98.9031, "RA_OF_ASC_NODE": 42.0952, "ARG_OF_PERICENTER": 227.9525, "MEAN_ANOMALY": 131.3054, "EPHEMERIS_TYPE": 0, "CLASSIFICATION_TYPE": "U", "NORAD_CAT_ID": 29934, "ELEMENT_SET_NO": 999, "REV_AT_EPOCH": 99887, "BSTAR": 0.00052436691, "MEAN_MOTION_DOT": 2.888e-05, "MEAN_MOTION_DDOT": 0}, "tle": {"line1": "1 29934U 99025JG  25354.59900274  .00002888  00000+0  52437-3 0  9996", "line2": "2 29934  98.9031  42.0952 0100929 227.9525 131.3054 14.63853085998875"}}, "geometry": {"type": "Point", "coordinates": [39.90499978326462, 15.919652376060169]}}, {"type": "Feature", "properties": {"norad_id": 29935, "name": "FENGYUN 1C DEB", "group": "fengyun-1c-debris", "lat": 62.64931737926076, "lon": -106.56309788942897, "alt_km": 811.7090609756251, "timestamp": "2025-12-20T22:39:10.899251+00:00", "meta": {"OBJECT_NAME": "FENGYUN 1C DEB", "OBJECT_ID": "1999-025JH", "EPOCH": "2025-12-20T02:03:28.120032", "MEAN_MOTION": 14.1424192, "ECCENTRICITY": 0.01505502, "INCLINATION": 98.4606, "RA_OF_ASC_NODE": 55.9004, "ARG_OF_PERICENTER": 194.9589, "MEAN_ANOMALY": 236.2446, "EPHEMERIS_TYPE": 0, "CLASSIFICATION_TYPE": "U", "NORAD_CAT_ID": 29935, "ELEMENT_SET_NO": 999, "REV_AT_EPOCH": 97646, "BSTAR": 8.8090384e-05, "MEAN_MOTION_DOT": 1.46e-06, "MEAN_MOTION_DDOT": 0}, "tle": {"line1": "1 29935U 99025JH  25354.08574213  .00000146  00000+0  88090-4 0  9991", "line2": "2 29935  98.4606  55.9004 0150550 194.9589 236.2446 14.14241920976464"}}, "geometry": {"type": "Point", "coordinates": [-106.56309788942897, 62.64931737926076]}}, {"type": "Feature", "properties": {"norad_id": 29936, "name": "FENGYUN 1C DEB", "group": "fengyun-1c-debris", "lat": 56.31487470723588, "lon": 95.13980240888274, "alt_km": 789.4535550338851, "timestamp": "2025-12-20T22:39:10.899261+00:00", "meta": {"OBJECT_NAME": "FENGYUN 1C DEB", "OBJECT_ID": "1999-025JJ", "EPOCH": "2025-12-20T07:19:30.524160", "MEAN_MOTION": 14.35320739, "ECCENTRICITY": 0.01143733, "INCLINATION": 98.6565, "RA_OF_ASC_NODE": 107.7113, "ARG_OF_PERICENTER": 164.6784, "MEAN_ANOMALY": 195.7912, "EPHEMERIS_TYPE": 0, "CLASSIFICATION_TYPE": "U", "NORAD_CAT_ID": 29936, "ELEMENT_SET_NO": 999, "REV_AT_EPOCH": 99039, "BSTAR": 0.00013577636, "MEAN_MOTION_DOT": 3.73e-06, "MEAN_MOTION_DDOT": 0}, "tle": {"line1": "1 29936U 99025JJ  25354.30521440  .00000373  00000+0  13578-3 0  9991", "line2": "2 29936  98.6565 107.7113 0114373 164.6784 195.7912 14.35320739990396"}}, "geometry": {"type": "Point", "coordinates": [95.13980240888274, 56.31487470723588]}}, {"type": "Feature", "properties": {"norad_id": 29937, "name": "FENGYUN 1C DEB", "group": "fengyun-1c-debris", "lat": -33.957154695093614, "lon": 21.69539366997743, "alt_km": 865.3791381919045, "timestamp": "2025-12-20T22:39:10.899271+00:00", "meta": {"OBJECT_NAME": "FENGYUN 1C DEB", "OBJECT_ID": "1999-025JK", "EPOCH": "2025-12-20T07:44:11.108256", "MEAN_MOTION": 14.04360566, "ECCENTRICITY": 0.00320424, "INCLINATION": 98.8019, "RA_OF_ASC_NODE": 15.104, "ARG_OF_PERICENTER": 0.6328, "MEAN_ANOMALY": 64.7466, "EPHEMERIS_TYPE": 0, "CLASSIFICATION_TYPE": "U", "NORAD_CAT_ID": 29937, "ELEMENT_SET_NO": 999, "REV_AT_EPOCH": 97042, "BSTAR": -7.4283378e-05, "MEAN_MOTION_DOT": -1.61e-06, "MEAN_MOTION_DDOT": 0}, "tle": {"line1": "1 29937U 99025JK  25354.32235079 -.00000161  00000+0 -74283-4 0  9992", "line2": "2 29937  98.8019  15.1040 0032042   0.6328  64.7466 14.04360566970428"}}, "geometry": {"type": "Point", "coordinates": [21.69539366997743, -33.957154695093614]}}, {"type": "Feature", "properties": {"norad_id": 29938, "name": "FENGYUN 1C DEB", "group": "fengyun-1c-debris", "lat": -16.49412410468847, "lon": -12.624745877936759, "alt_km": 859.6624910598912, "timestamp": "2025-12-20T22:39:10.899280+00:00", "meta": {"OBJECT_NAME": "FENGYUN 1C DEB", "OBJECT_ID": "1999-025JL", "EPOCH": "2025-12-20T11:22:01.445376", "MEAN_MOTION": 14.07463023, "ECCENTRICITY": 0.00326148, "INCLINATION": 98.8024, "RA_OF_ASC_NODE": 344.2875, "ARG_OF_PERICENTER": 288.4683, "MEAN_ANOMALY": 193.2775, "EPHEMERIS_TYPE": 0, "CLASSIFICATION_TYPE": "U", "NORAD_CAT_ID": 29938, "ELEMENT_SET_NO": 999, "REV_AT_EPOCH": 97165, "BSTAR": 4.9455773e-05, "MEAN_MOTION_DOT": 4e-07, "MEAN_MOTION_DDOT": 0}, "tle": {"line1": "1 29938U 99025JL  25354.47362784  .00000040  00000+0  49456-4 0  9991", "line2": "2 29938  98.8024 344.2875 0032614 288.4683 193.2775 14.07463023971654"}}, "geometry": {"type": "Point", "coordinates": [-12.624745877936759, -16.49412410468847]}}, {"type": "Feature", "properties": {"norad_id": 29939, "name": "FENGYUN 1C DEB", "group": "fengyun-1c-debris", "lat": 68.20193914797257, "lon": -163.16490650601946, "alt_km": 797.1738134202214, "timestamp": "2025-12-20T22:39:10.899290+00:00", "meta": {"OBJECT_NAME": "FENGYUN 1C DEB", "OBJECT_ID": "1999-025JM", "EPOCH": "2025-12-20T14:10:39.338976", "MEAN_MOTION": 14.120862, "ECCENTRICITY": 0.0067234, "INCLINATION": 98.7098, "RA_OF_ASC_NODE": 353.9539, "ARG_OF_PERICENTER": 116.5041, "MEAN_ANOMALY": 359.3885, "EPHEMERIS_TYPE": 0, "CLASSIFICATION_TYPE": "U", "NORAD_CAT_ID": 29939, "ELEMENT_SET_NO": 999, "REV_AT_EPOCH": 97571, "BSTAR": 5.0721118e-05, "MEAN_MOTION_DOT": 5.3e-07, "MEAN_MOTION_DDOT": 0}, "tle": {"line1": "1 29939U 99025JM  25354.59073309  .00000053  00000+0  50721-4 0  9998", "line2": "2 29939  98.7098 353.9539 0067234 116.5041 359.3885 14.12086200975716"}}, "geometry": {"type": "Point", "coordinates": [-163.16490650601946, 68.20193914797257]}}]}